#aV2006  3 30  0  0   .00000000      96 DD+AD WGS84 FIT  NGA
## 1368 345600.00000000   900.00000000 53824  .0000000000000
+   29     1  2  3  4  5  6  7  8  9 10 11 13 14 15 16 17 18
+         19 20 21 22 23 24 25 26 27 28 29 30  0  0  0  0  0
+          0  0  0  0  0  0  0  0  0  0  0  0  0  0  0  0  0
+          0  0  0  0  0  0  0  0  0  0  0  0  0  0  0  0  0
+          0  0  0  0  0  0  0  0  0  0  0  0  0  0  0  0  0
++         0  0  0  0  0  0  0  0  0  0  0  0  0  0  0  0  0
++         0  0  0  0  0  0  0  0  0  0  0  0  0  0  0  0  0
++         0  0  0  0  0  0  0  0  0  0  0  0  0  0  0  0  0
++         0  0  0  0  0  0  0  0  0  0  0  0  0  0  0  0  0
++         0  0  0  0  0  0  0  0  0  0  0  0  0  0  0  0  0
%c cc cc ccc ccc cccc cccc cccc cccc ccccc ccccc ccccc ccccc
%c cc cc ccc ccc cccc cccc cccc cccc ccccc ccccc ccccc ccccc
%f  0.0000000  0.000000000  0.00000000000  0.000000000000000
%f  0.0000000  0.000000000  0.00000000000  0.000000000000000
%i    0    0    0    0      0      0      0      0         0
%i    0    0    0    0      0      0      0      0         0
/*      NGA, ST. LOUIS,MO.                                  
/*   EPHEMERIS COMPUTED FROM  3 DAYS OF DATA                
/* CCCCCCCCCCCCCCCCCCCCCCCCCCCCCCCCCCCCCCCCCCCCCCCCCCCCCCCCC
/* CCCCCCCCCCCCCCCCCCCCCCCCCCCCCCCCCCCCCCCCCCCCCCCCCCCCCCCCC
*  2006  3 30  0  0   .00000000                                                 
P  1 -18039.746672 -15327.260196  12284.390606     44.166109                    
V  1  14821.740318   3830.693002  26937.452699       .021383                    
P  2  12763.737734  20499.326478 -11541.719388    -11.959297                    
V  2    538.820328  14398.246513  26613.294804       .019988                    
P  3 -22530.163083 -11711.301719  -8459.523859     85.928849                    
V  3  10962.464001   -848.947959 -28267.589832       .031502                    
P  4   6398.127270  25495.173375  -2097.575573    190.853364                    
V  4  -2889.937287   3253.062310  31596.694339       .105013                    
P  5  21414.364748 -10836.511298  10997.898016   -256.413468                    
V  5  -7553.556220  12632.229319  26850.289646       .723732                    
P  6  16990.774702  -9009.480309 -18157.395607    437.927971                    
V  6  22029.400529   8434.469753  16177.367805       .261200                    
P  7   5879.151240 -14544.833966 -21129.289969    521.189577                    
V  7  26712.382195   7278.202683   2227.423435       .056404                    
P  8   -590.292792  25428.581079  -7026.430193    -61.066964                    
V  8  -4064.522478  -8260.108026 -30557.576906      -.012986                    
P  9  15406.788831    586.783958  21119.623333     13.921484                    
V  9   6432.779446  27319.780219  -5036.806983       .014840                    
P 10  14793.417696   6337.202792 -21277.185598     80.969732                    
V 10 -19963.212641  17736.062753  -8328.263645       .005865                    
P 11 -16681.224617   2026.111238  20526.239671    316.958465                    
V 11  -8547.926087 -25067.407620  -4210.787410       .026844                    
P 13 -15003.934650   8687.878758 -20180.454147     50.895699                    
V 13 -23670.786716  -9212.935336  13746.385785       .026850                    
P 14  -4227.754380 -16012.219479  20842.947440    -16.927188                    
V 14  25049.546103   7809.972140  11073.113859       .006902                    
P 15   1783.398529 -25329.655054  -7235.767443    588.285155                    
V 15   4222.102022   8590.220861 -30098.110380       .060788                    
P 16  -9277.395093 -11993.983538 -21717.305745     33.843444                    
V 16  20950.117692 -18246.526625   1217.721191       .021061                    
P 17   2633.942810  16213.831770  20872.626467     75.524750                    
V 17 -25441.439891  -7532.478598   8966.313896       .055655                    
P 18  17336.411904 -19170.916153   5480.593296   -228.253072                    
V 18   7259.789046  -2022.642740 -30865.374175      -.019021                    
P 19 -25367.699256  -6404.669588   4788.873013    -17.191490                    
V 19  -4512.919359  -4764.473546 -30907.996647       .013396                    
P 20 -22121.747054  10608.647400  10042.078502    -29.638225                    
V 20   7765.318348 -10629.628247  28115.172205       .007748                    
P 21   7358.829233 -20525.278276 -14753.592668     17.378562                    
V 21   5948.274028  18333.928757 -22983.098882       .030178                    
P 22   6274.687610 -19988.260583  16479.547104     80.611466                    
V 22  17275.528848 -11473.454091 -20688.224121       .035341                    
P 23 -23725.953970   1057.999859 -12138.462020    145.585998                    
V 23 -13829.206083  -6629.429772  26501.479255      -.011666                    
P 24  -3981.337938  23860.699799  10908.273243     96.672826                    
V 24  -4659.590630 -13024.836494  27627.444283       .030132                    
P 25 -10332.215387 -24007.677295  -3930.492184     -2.871062                    
V 25   1410.940108  -6203.896470  31128.500758       .131420                    
P 26  25369.630400   8895.328484    158.512394    -72.539871                    
V 26    152.058472   1533.727273 -31987.336605      -.100574                    
P 27  -5383.166557  20567.958294 -15100.192129     42.043382                    
V 27  -7790.335381 -19021.043394 -22592.863629       .016166                    
P 28  -8830.889120  20683.668237  14129.493581     30.509555                    
V 28 -14846.824279   9750.817582 -24372.394795      -.006024                    
P 29  24587.173795   9897.401449  -3043.723367    573.273092                    
V 29  -4468.298211    446.869050 -31832.455890       .093225                    
P 30  19742.467950 -17597.490695   1362.775671     65.682663                    
V 30    894.803604   3918.886699  31398.985759       .615176                    
EOF
